1 48217U 21031H   23086.69739093 -.00000235  00000-0 -66920-3 0  9992
2 48217  87.9113 163.9805 0002650 106.3762 253.7660 13.14501412 93534
1 48217U 21031H   23086.69739093 -.00000235  00000-0 -66920-3 0  9992
2 48217  87.9113 163.9805 0002650 106.3762 253.7660 13.14501412 93534
1 48217U 21031H   23087.23021516 -.00000108  00000-0 -32527-3 0  9992
2 48217  87.9112 163.8750 0002642 105.8125 254.3296 13.14502283 93606
1 48217U 21031H   23087.76304139 -.00000162  00000-0 -47245-3 0  9998
2 48217  87.9109 163.7695 0002608 104.5333 255.6086 13.14501485 93679
1 48217U 21031H   23087.76304139 -.00000162  00000-0 -47245-3 0  9998
2 48217  87.9109 163.7695 0002608 104.5333 255.6086 13.14501485 93679
1 48217U 21031H   23088.29586574  .00000051  00000-0  10217-3 0  9996
2 48217  87.9108 163.6642 0002645 104.6692 255.4731 13.14502267 93741
1 48217U 21031H   23088.75257395 -.00000003  00000-0 -43214-4 0  9996
2 48217  87.9107 163.5738 0002607 103.8613 256.2806 13.14501809 93807
1 48217U 21031H   23089.20928100  .00000131  00000-0  31812-3 0  9996
2 48217  87.9106 163.4835 0002617 103.5395 256.6027 13.14502188 93864
1 48217U 21031H   23089.74210700  .00000106  00000-0  25171-3 0  9998
2 48217  87.9106 163.3783 0002619 103.7619 256.3802 13.14501594 93934
1 48217U 21031H   23090.27493147  .00000248  00000-0  63522-3 0  9995
2 48217  87.9106 163.2730 0002644 103.4672 256.6753 13.14502420 94005
1 48217U 21031H   23091.26446410  .00000225  00000-0  57249-3 0  9990
2 48217  87.9104 163.0773 0002649 102.4793 257.6633 13.14502269 94139
1 48217U 21031H   23091.72117103  .00000258  00000-0  66184-3 0  9999
2 48217  87.9101 162.9868 0002645 102.2668 257.8758 13.14502193 94196
1 48217U 21031H   23092.55846607  .00000262  00000-0  67267-3 0  9997
2 48217  87.9099 162.8212 0002668 101.2782 258.8648 13.14503025 94302
1 48217U 21031H   23092.71070229  .00000191  00000-0  48008-3 0  9997
2 48217  87.9098 162.7911 0002658 101.2773 258.8655 13.14502334 94327
1 48217U 21031H   23093.16740831  .00000229  00000-0  58415-3 0  9995
2 48217  87.9098 162.7008 0002676 101.0072 259.1359 13.14502866 94385
1 48217U 21031H   23093.24352619  .00000145  00000-0  35779-3 0  9992
2 48217  87.9097 162.6858 0002674 100.7856 259.3575 13.14502946 94392
1 48217U 21031H   23093.62411496  .00000113  00000-0  27162-3 0  9995
2 48217  87.9096 162.6105 0002678 100.5982 259.5449 13.14502730 94447
1 48217U 21031H   23094.23305665  .00000031  00000-0  48090-4 0  9996
2 48217  87.9097 162.4900 0002683  99.8925 260.2508 13.14503097 94523
1 48217U 21031H   23094.23305665  .00000031  00000-0  48090-4 0  9996
2 48217  87.9097 162.4900 0002683  99.8925 260.2508 13.14503097 94523
1 48217U 21031H   23095.60317640 -.00000183  00000-0 -52843-3 0  9994
2 48217  87.9095 162.2187 0002707  99.1347 261.0089 13.14502579 94701
1 48217U 21031H   23095.67929383 -.00000180  00000-0 -51929-3 0  9995
2 48217  87.9095 162.2038 0002686  98.9990 261.1443 13.14502942 94713
1 48217U 21031H   23095.67929383 -.00000180  00000-0 -51929-3 0  9995
2 48217  87.9095 162.2038 0002686  98.9990 261.1443 13.14502942 94713
1 48217U 21031H   23096.59270712 -.00000211  00000-0 -60350-3 0  9995
2 48217  87.9095 162.0232 0002683  98.3197 261.8237 13.14502784 94832
1 48217U 21031H   23096.89717856 -.00000195  00000-0 -55999-3 0  9997
2 48217  87.9096 161.9634 0002677  97.8035 262.3399 13.14502395 94872
1 48217U 21031H   23097.12553095 -.00000088  00000-0 -27142-3 0  9997
2 48217  87.9095 161.9178 0002659  97.7385 262.4046 13.14503341 94907
1 48217U 21031H   23097.20164914 -.00000139  00000-0 -41051-3 0  9996
2 48217  87.9094 161.9026 0002656  97.6385 262.5046 13.14502970 94913
1 48217U 21031H   23098.19118068 -.00000028  00000-0 -10957-3 0  9992
2 48217  87.9095 161.7069 0002651  96.8285 263.3146 13.14503054 95043
1 48217U 21031H   23098.19118068 -.00000028  00000-0 -10957-3 0  9992
2 48217  87.9095 161.7069 0002651  96.8285 263.3146 13.14503054 95043
1 48217U 21031H   23099.10460337 -.00000839  00000-0 -22975-2 0  9995
2 48217  87.9094 161.5262 0002756  97.0142 263.1301 13.14496367 95168
1 48217U 21031H   23099.18072005 -.00001088  00000-0 -29700-2 0  9994
2 48217  87.9091 161.5127 0002912  96.3657 263.7804 13.14498847 95172
1 48217U 21031H   23099.86577672  .00000360  00000-0  93672-3 0  9999
2 48217  87.9099 161.3765 0002687  96.3272 263.8164 13.14504804 95269
1 48217U 21031H   23100.24636310  .00000704  00000-0  18647-2 0  9999
2 48217  87.9095 161.3008 0002623  95.0947 265.0482 13.14506703 95313
1 48217U 21031H   23100.85530505  .00001277  00000-0  34086-2 0  9996
2 48217  87.9091 161.1804 0002628  96.7334 263.4094 13.14504248 95395
1 48217U 21031H   23101.15977315 -.00000483  00000-0 -13373-2 0  9990
2 48217  87.9087 161.1195 0002556  91.2497 268.8926 13.14513042 95433
1 48217U 21031H   23101.23589439  .00001978  00000-0  52997-2 0  9998
2 48217  87.9089 161.1045 0002658  93.4705 266.6729 13.14501147 95449
1 48217U 21031H   23101.23589439  .00001978  00000-0  52997-2 0  9998
2 48217  87.9089 161.1045 0002658  93.4705 266.6729 13.14501147 95449
1 48217U 21031H   23102.22541959  .00000274  00000-0  70548-3 0  9994
2 48217  87.9085 160.9085 0002686  93.0111 267.1327 13.14511465 95572
1 48217U 21031H   23103.21494424  .00000222  00000-0  56459-3 0  9996
2 48217  87.9082 160.7126 0002657  91.9603 268.1831 13.14511401 95700
1 48217U 21031H   23103.21494424  .00000222  00000-0  56459-3 0  9996
2 48217  87.9082 160.7126 0002657  91.9603 268.1831 13.14511401 95700
1 48217U 21031H   23104.20446862  .00000090  00000-0  20755-3 0  9992
2 48217  87.9082 160.5169 0002631  90.9284 269.2147 13.14511052 95839
1 48217U 21031H   23105.19400216 -.00000867  00000-0 -23730-2 0  9993
2 48217  87.9082 160.3211 0002599  89.4103 270.7324 13.14504058 95967
1 48217U 21031H   23105.57458947 -.00000821  00000-0 -22499-2 0  9990
2 48217  87.9079 160.2456 0002611  89.4172 270.7257 13.14504756 96011
1 48217U 21031H   23105.87906062 -.00000848  00000-0 -23210-2 0  9990
2 48217  87.9077 160.1851 0002625  89.7570 270.3860 13.14503926 96055
1 48217U 21031H   23106.56412145 -.00000617  00000-0 -17001-2 0  9996
2 48217  87.9073 160.0489 0002650  89.3061 270.8372 13.14501429 96145
1 48217U 21031H   23106.64023908 -.00000551  00000-0 -15214-2 0  9991
2 48217  87.9073 160.0341 0002652  88.9985 271.1449 13.14501461 96150
1 48217U 21031H   23106.86859269 -.00000128  00000-0 -37957-3 0  9991
2 48217  87.9075 159.9894 0002639  88.6705 271.4727 13.14499467 96181
1 48217U 21031H   23107.55365479 -.00000189  00000-0 -54391-3 0  9991
2 48217  87.9075 159.8538 0002648  88.2067 271.9366 13.14499328 96272
1 48217U 21031H   23107.70589097 -.00000218  00000-0 -62129-3 0  9993
2 48217  87.9074 159.8235 0002643  87.9944 272.1488 13.14499191 96298
1 48217U 21031H   23107.70589097 -.00000218  00000-0 -62129-3 0  9993
2 48217  87.9074 159.8235 0002643  87.9944 272.1488 13.14499191 96298
1 48217U 21031H   23108.16259818 -.00000101  00000-0 -30570-3 0  9995
2 48217  87.9073 159.7330 0002631  87.5474 272.5957 13.14499921 96356
1 48217U 21031H   23108.84766079 -.00000084  00000-0 -26166-3 0  9998
2 48217  87.9072 159.5973 0002616  86.5677 273.5752 13.14499662 96449
1 48217U 21031H   23109.07601442 -.00000011  00000-0 -64332-4 0  9994
2 48217  87.9072 159.5520 0002606  86.4601 273.6827 13.14500049 96471
1 48217U 21031H   23109.22825076 -.00000030  00000-0 -11546-3 0  9991
2 48217  87.9071 159.5219 0002602  86.2351 273.9076 13.14499791 96493
1 48217U 21031H   23109.83719593 -.00000036  00000-0 -13195-3 0  9992
2 48217  87.9070 159.4013 0002591  85.6316 274.5110 13.14499073 96572
1 48217U 21031H   23110.21778519  .00000135  00000-0  32953-3 0  9990
2 48217  87.9069 159.3260 0002579  85.5438 274.5986 13.14499922 96623
1 48217U 21031H   23110.21778519  .00000135  00000-0  32953-3 0  9990
2 48217  87.9069 159.3260 0002579  85.5438 274.5986 13.14499922 96623
1 48217U 21031H   23110.82672952  .00000182  00000-0  45666-3 0  9998
2 48217  87.9069 159.2054 0002566  85.0616 275.0806 13.14499960 96700
1 48217U 21031H   23111.35955568  .00000205  00000-0  51805-3 0  9992
2 48217  87.9067 159.0999 0002552  84.8183 275.3238 13.14499927 96777
1 48217U 21031H   23111.89238165  .00000308  00000-0  79653-3 0  9993
2 48217  87.9066 158.9944 0002535  84.3553 275.7866 13.14499681 96847
1 48217U 21031H   23112.19685341  .00000239  00000-0  60890-3 0  9995
2 48217  87.9065 158.9341 0002524  83.8664 276.2753 13.14500221 96880
1 48217U 21031H   23112.50132528  .00000227  00000-0  57753-3 0  9995
2 48217  87.9064 158.8738 0002520  83.7067 276.4349 13.14500189 96921
1 48217U 21031H   23113.56697575  .00000209  00000-0  53060-3 0  9997
2 48217  87.9062 158.6626 0002508  83.1428 276.9987 13.14500550 97065
1 48217U 21031H   23114.32815418  .00000172  00000-0  42868-3 0  9993
2 48217  87.9061 158.5118 0002512  82.4087 277.7328 13.14500862 97162
1 48217U 21031H   23114.55650850  .00000087  00000-0  20017-3 0  9992
2 48217  87.9061 158.4663 0002506  82.6845 277.4569 13.14499954 97199
1 48217U 21031H   23115.16545116 -.00000018  00000-0 -83351-4 0  9995
2 48217  87.9061 158.3457 0002500  82.7206 277.4208 13.14500315 97278
1 48217U 21031H   23116.53557182 -.00000073  00000-0 -23090-3 0  9997
2 48217  87.9059 158.0745 0002471  81.1828 278.9581 13.14500676 97452
1 48217U 21031H   23116.84004395 -.00000208  00000-0 -59569-3 0  9994
2 48217  87.9060 158.0144 0002479  80.7937 279.3473 13.14500337 97494
1 48217U 21031H   23117.14451512 -.00000085  00000-0 -26264-3 0  9994
2 48217  87.9061 157.9541 0002463  80.4138 279.7269 13.14500296 97533
1 48217U 21031H   23117.14451512 -.00000085  00000-0 -26264-3 0  9994
2 48217  87.9061 157.9541 0002463  80.4138 279.7269 13.14500296 97533
1 48217U 21031H   23118.36240191 -.00000193  00000-0 -55619-3 0  9994
2 48217  87.9062 157.7129 0002438  79.5949 280.5456 13.14500330 97699
1 48217U 21031H   23118.36240191 -.00000193  00000-0 -55619-3 0  9994
2 48217  87.9062 157.7129 0002438  79.5949 280.5456 13.14500330 97699
